start=new Date('2022-01-21T00:00:00.000Z').valueOf();
sats=[{"EPHEMERIS_TYPE":"0","OBJECT_NAME":"STARLINK-1740","ELEMENT_SET_NO":"999","MEAN_MOTION_DDOT":"0.0000000000000","OBJECT_ID":"2020-070AL","REF_FRAME":"TEME","MEAN_ANOMALY":"283.1245","APOAPSIS":"548.163","EPOCH":"2022-01-20T11:54:29.830176","DECAY_DATE":null,"ECCENTRICITY":"0.00013480","NORAD_CAT_ID":"46566","MEAN_MOTION_DOT":"0.00001343","BSTAR":"0.00010903000000","GP_ID":"194260443","PERIAPSIS":"546.296","INCLINATION":"53.0536","SITE":"AFETR","CLASSIFICATION_TYPE":"U","TLE_LINE2":"2 46566  53.0536  91.6543 0001348  76.9895 283.1245 15.06394794 72315","MEAN_ELEMENT_THEORY":"SGP4","TLE_LINE1":"1 46566U 20070AL  22020.49617859  .00001343  00000-0  10903-3 0  9998","MEAN_MOTION":"15.06394794","COUNTRY_CODE":"US","SEMIMAJOR_AXIS":"6925.365","TIME_SYSTEM":"UTC","PERIOD":"95.592","CENTER_NAME":"EARTH","RCS_SIZE":"LARGE","ARG_OF_PERICENTER":"76.9895","LAUNCH_DATE":"2020-10-06","FILE":"3278533","REV_AT_EPOCH":"7231","OBJECT_TYPE":"PAYLOAD","RA_OF_ASC_NODE":"91.6543"},{"MEAN_MOTION_DOT":"0.00002565","BSTAR":"0.00019108000000","GP_ID":"194260695","TLE_LINE2":"2 46567  53.0552  91.8311 0001186  86.5317 273.5807 15.06389837 72314","CLASSIFICATION_TYPE":"U","MEAN_ELEMENT_THEORY":"SGP4","SITE":"AFETR","INCLINATION":"53.0552","PERIAPSIS":"546.423","MEAN_MOTION":"15.06389837","TLE_LINE1":"1 46567U 20070AM  22020.45931911  .00002565  00000-0  19108-3 0  9996","SEMIMAJOR_AXIS":"6925.380","COUNTRY_CODE":"US","PERIOD":"95.593","TIME_SYSTEM":"UTC","LAUNCH_DATE":"2020-10-06","RCS_SIZE":"LARGE","ARG_OF_PERICENTER":"86.5317","CENTER_NAME":"EARTH","OBJECT_TYPE":"PAYLOAD","RA_OF_ASC_NODE":"91.8311","REV_AT_EPOCH":"7231","FILE":"3278533","OBJECT_NAME":"STARLINK-1741","EPHEMERIS_TYPE":"0","OBJECT_ID":"2020-070AM","MEAN_MOTION_DDOT":"0.0000000000000","ELEMENT_SET_NO":"999","MEAN_ANOMALY":"273.5807","REF_FRAME":"TEME","APOAPSIS":"548.066","NORAD_CAT_ID":"46567","ECCENTRICITY":"0.00011860","DECAY_DATE":null,"EPOCH":"2022-01-20T11:01:25.171104"},{"APOAPSIS":"423.331","ECCENTRICITY":"0.00075860","NORAD_CAT_ID":"46568","EPOCH":"2022-01-20T12:51:39.961152","DECAY_DATE":null,"MEAN_MOTION_DDOT":"0.0000000000000","OBJECT_ID":"2020-070AN","ELEMENT_SET_NO":"999","REF_FRAME":"TEME","MEAN_ANOMALY":"255.8351","OBJECT_NAME":"STARLINK-1743","EPHEMERIS_TYPE":"0","ARG_OF_PERICENTER":"104.3500","RCS_SIZE":"LARGE","LAUNCH_DATE":"2020-10-06","CENTER_NAME":"EARTH","RA_OF_ASC_NODE":"74.3725","OBJECT_TYPE":"PAYLOAD","FILE":"3278719","REV_AT_EPOCH":"7258","SEMIMAJOR_AXIS":"6796.311","COUNTRY_CODE":"US","TIME_SYSTEM":"UTC","PERIOD":"92.933","CLASSIFICATION_TYPE":"U","TLE_LINE2":"2 46568  53.0518  74.3725 0007586 104.3500 255.8351 15.49504770 72583","MEAN_ELEMENT_THEORY":"SGP4","PERIAPSIS":"413.020","SITE":"AFETR","INCLINATION":"53.0518","MEAN_MOTION":"15.49504770","TLE_LINE1":"1 46568U 20070AN  22020.53587918  .00072471  00000-0  12888-2 0  9990","MEAN_MOTION_DOT":"0.00072471","GP_ID":"194268427","BSTAR":"0.00128880000000"},{"APOAPSIS":"548.167","ECCENTRICITY":"0.00013620","NORAD_CAT_ID":"46569","EPOCH":"2022-01-20T11:22:39.569376","DECAY_DATE":null,"MEAN_MOTION_DDOT":"0.0000000000000","OBJECT_ID":"2020-070AP","ELEMENT_SET_NO":"999","REF_FRAME":"TEME","MEAN_ANOMALY":"277.5516","OBJECT_NAME":"STARLINK-1747","EPHEMERIS_TYPE":"0","RCS_SIZE":"LARGE","ARG_OF_PERICENTER":"82.5628","LAUNCH_DATE":"2020-10-06","CENTER_NAME":"EARTH","OBJECT_TYPE":"PAYLOAD","RA_OF_ASC_NODE":"91.7451","FILE":"3278533","REV_AT_EPOCH":"7231","SEMIMAJOR_AXIS":"6925.359","COUNTRY_CODE":"US","TIME_SYSTEM":"UTC","PERIOD":"95.592","TLE_LINE2":"2 46569  53.0538  91.7451 0001362  82.5628 277.5516 15.06396599 72315","CLASSIFICATION_TYPE":"U","MEAN_ELEMENT_THEORY":"SGP4","PERIAPSIS":"546.281","INCLINATION":"53.0538","SITE":"AFETR","MEAN_MOTION":"15.06396599","TLE_LINE1":"1 46569U 20070AP  22020.47406909  .00005157  00000-0  36490-3 0  9997","MEAN_MOTION_DOT":"0.00005157","GP_ID":"194260189","BSTAR":"0.00036490000000"},{"MEAN_MOTION_DOT":"0.00003011","BSTAR":"0.00022094000000","GP_ID":"194268945","CLASSIFICATION_TYPE":"U","TLE_LINE2":"2 46570  53.0560  91.5593 0001411  71.2984 288.8158 15.06400098 72320","MEAN_ELEMENT_THEORY":"SGP4","INCLINATION":"53.0560","SITE":"AFETR","PERIAPSIS":"546.236","MEAN_MOTION":"15.06400098","TLE_LINE1":"1 46570U 20070AQ  22020.51461201  .00003011  00000-0  22094-3 0  9992","SEMIMAJOR_AXIS":"6925.348","COUNTRY_CODE":"US","PERIOD":"95.592","TIME_SYSTEM":"UTC","LAUNCH_DATE":"2020-10-06","ARG_OF_PERICENTER":"71.2984","RCS_SIZE":"LARGE","CENTER_NAME":"EARTH","RA_OF_ASC_NODE":"91.5593","OBJECT_TYPE":"PAYLOAD","REV_AT_EPOCH":"7232","FILE":"3278713","OBJECT_NAME":"STARLINK-1748","EPHEMERIS_TYPE":"0","OBJECT_ID":"2020-070AQ","MEAN_MOTION_DDOT":"0.0000000000000","ELEMENT_SET_NO":"999","MEAN_ANOMALY":"288.8158","REF_FRAME":"TEME","APOAPSIS":"548.190","NORAD_CAT_ID":"46570","ECCENTRICITY":"0.00014110","DECAY_DATE":null,"EPOCH":"2022-01-20T12:21:02.477664"},{"MEAN_MOTION":"15.68352371","TLE_LINE1":"1 46571U 20070AR  22020.53469132  .00042301  00000-0  37224-3 0  9992","MEAN_ELEMENT_THEORY":"SGP4","TLE_LINE2":"2 46571  53.0539  72.2256 0004476  46.6821 313.4567 15.68352371 72595","CLASSIFICATION_TYPE":"U","PERIAPSIS":"360.599","INCLINATION":"53.0539","SITE":"AFETR","BSTAR":"0.00037224000000","GP_ID":"194268935","MEAN_MOTION_DOT":"0.00042301","RA_OF_ASC_NODE":"72.2256","OBJECT_TYPE":"PAYLOAD","FILE":"3278713","REV_AT_EPOCH":"7259","ARG_OF_PERICENTER":"46.6821","RCS_SIZE":"LARGE","LAUNCH_DATE":"2020-10-06","CENTER_NAME":"EARTH","TIME_SYSTEM":"UTC","PERIOD":"91.816","SEMIMAJOR_AXIS":"6741.752","COUNTRY_CODE":"US","REF_FRAME":"TEME","MEAN_ANOMALY":"313.4567","MEAN_MOTION_DDOT":"0.0000000000000","OBJECT_ID":"2020-070AR","ELEMENT_SET_NO":"999","OBJECT_NAME":"STARLINK-1753","EPHEMERIS_TYPE":"0","ECCENTRICITY":"0.00044760","NORAD_CAT_ID":"46571","EPOCH":"2022-01-20T12:49:57.330048","DECAY_DATE":null,"APOAPSIS":"366.634"},{"REV_AT_EPOCH":"7208","FILE":"3278705","OBJECT_TYPE":"PAYLOAD","RA_OF_ASC_NODE":"110.6931","CENTER_NAME":"EARTH","LAUNCH_DATE":"2020-10-06","RCS_SIZE":"LARGE","ARG_OF_PERICENTER":"75.7516","PERIOD":"95.592","TIME_SYSTEM":"UTC","COUNTRY_CODE":"US","SEMIMAJOR_AXIS":"6925.363","TLE_LINE1":"1 46572U 20070AS  22020.71180901  .00000325  00000-0  40708-4 0  9999","MEAN_MOTION":"15.06395352","SITE":"AFETR","INCLINATION":"53.0541","PERIAPSIS":"546.273","MEAN_ELEMENT_THEORY":"SGP4","TLE_LINE2":"2 46572  53.0541 110.6931 0001378  75.7516 284.3626 15.06395352 72082","CLASSIFICATION_TYPE":"U","BSTAR":"0.00004070800000","GP_ID":"194268815","MEAN_MOTION_DOT":"0.00000325","DECAY_DATE":null,"EPOCH":"2022-01-20T17:05:00.298464","NORAD_CAT_ID":"46572","ECCENTRICITY":"0.00013780","APOAPSIS":"548.182","MEAN_ANOMALY":"284.3626","REF_FRAME":"TEME","ELEMENT_SET_NO":"999","OBJECT_ID":"2020-070AS","MEAN_MOTION_DDOT":"0.0000000000000","EPHEMERIS_TYPE":"0","OBJECT_NAME":"STARLINK-1531"},{"COUNTRY_CODE":"US","SEMIMAJOR_AXIS":"6925.326","PERIOD":"95.592","TIME_SYSTEM":"UTC","CENTER_NAME":"EARTH","LAUNCH_DATE":"2020-10-06","ARG_OF_PERICENTER":"79.3405","RCS_SIZE":"LARGE","REV_AT_EPOCH":"7225","FILE":"3278533","OBJECT_TYPE":"PAYLOAD","RA_OF_ASC_NODE":"96.3744","MEAN_MOTION_DOT":"0.00003232","BSTAR":"0.00023575000000","GP_ID":"194259689","INCLINATION":"53.0536","SITE":"AFETR","PERIAPSIS":"546.348","TLE_LINE2":"2 46573  53.0536  96.3744 0001217  79.3405 280.7720 15.06407468 72254","MEAN_ELEMENT_THEORY":"SGP4","CLASSIFICATION_TYPE":"U","TLE_LINE1":"1 46573U 20070AT  22020.55653560  .00003232  00000-0  23575-3 0  9990","MEAN_MOTION":"15.06407468","APOAPSIS":"548.033","DECAY_DATE":null,"EPOCH":"2022-01-20T13:21:24.675840","NORAD_CAT_ID":"46573","ECCENTRICITY":"0.00012170","EPHEMERIS_TYPE":"0","OBJECT_NAME":"STARLINK-1650","ELEMENT_SET_NO":"999","OBJECT_ID":"2020-070AT","MEAN_MOTION_DDOT":"0.0000000000000","MEAN_ANOMALY":"280.7720","REF_FRAME":"TEME"},{"MEAN_MOTION_DOT":"0.00001854","BSTAR":"0.00014333000000","GP_ID":"194268804","TLE_LINE2":"2 46574  53.0545  96.1531 0001345  83.0421 277.0721 15.06396491 72263","MEAN_ELEMENT_THEORY":"SGP4","CLASSIFICATION_TYPE":"U","SITE":"AFETR","INCLINATION":"53.0545","PERIAPSIS":"546.293","MEAN_MOTION":"15.06396491","TLE_LINE1":"1 46574U 20070AU  22020.60814065  .00001854  00000-0  14333-3 0  9996","SEMIMAJOR_AXIS":"6925.359","COUNTRY_CODE":"US","PERIOD":"95.592","TIME_SYSTEM":"UTC","LAUNCH_DATE":"2020-10-06","ARG_OF_PERICENTER":"83.0421","RCS_SIZE":"LARGE","CENTER_NAME":"EARTH","OBJECT_TYPE":"PAYLOAD","RA_OF_ASC_NODE":"96.1531","REV_AT_EPOCH":"7226","FILE":"3278705","OBJECT_NAME":"STARLINK-1660","EPHEMERIS_TYPE":"0","OBJECT_ID":"2020-070AU","MEAN_MOTION_DDOT":"0.0000000000000","ELEMENT_SET_NO":"999","MEAN_ANOMALY":"277.0721","REF_FRAME":"TEME","APOAPSIS":"548.156","NORAD_CAT_ID":"46574","ECCENTRICITY":"0.00013450","DECAY_DATE":null,"EPOCH":"2022-01-20T14:35:43.352160"},{"FILE":"3278533","REV_AT_EPOCH":"7259","RA_OF_ASC_NODE":"71.4803","OBJECT_TYPE":"PAYLOAD","CENTER_NAME":"EARTH","ARG_OF_PERICENTER":"84.8286","RCS_SIZE":"LARGE","LAUNCH_DATE":"2020-10-06","TIME_SYSTEM":"UTC","PERIOD":"95.592","COUNTRY_CODE":"US","SEMIMAJOR_AXIS":"6925.341","TLE_LINE1":"1 46575U 20070AV  22020.53393515  .00002711  00000-0  20078-3 0  9997","MEAN_MOTION":"15.06402468","PERIAPSIS":"546.221","INCLINATION":"53.0532","SITE":"AFETR","TLE_LINE2":"2 46575  53.0532  71.4803 0001423  84.8286 275.2865 15.06402468 72590","MEAN_ELEMENT_THEORY":"SGP4","CLASSIFICATION_TYPE":"U","GP_ID":"194260696","BSTAR":"0.00020078000000","MEAN_MOTION_DOT":"0.00002711","EPOCH":"2022-01-20T12:48:51.996960","DECAY_DATE":null,"ECCENTRICITY":"0.00014230","NORAD_CAT_ID":"46575","APOAPSIS":"548.191","REF_FRAME":"TEME","MEAN_ANOMALY":"275.2865","ELEMENT_SET_NO":"999","MEAN_MOTION_DDOT":"0.0000000000000","OBJECT_ID":"2020-070AV","EPHEMERIS_TYPE":"0","OBJECT_NAME":"STARLINK-1675"}];
